<?xml version="1.0" encoding="utf-8"?>
<gpx xmlns="http://www.topografix.com/GPX/1/1" version="1.1" creator="ladakh-pace">
  <metadata><name>Ladakh Marathon Full</name></metadata>
  <trk><name>Ladakh Marathon Full</name><trkseg>
<trkpt lat="34.14728" lon="77.58019"><ele>3392</ele></trkpt>
<trkpt lat="34.14625" lon="77.58096"><ele>3385</ele></trkpt>
<trkpt lat="34.14297" lon="77.58381"><ele>3375</ele></trkpt>
<trkpt lat="34.14151" lon="77.58507"><ele>3377</ele></trkpt>
<trkpt lat="34.14038" lon="77.58587"><ele>3368</ele></trkpt>
<trkpt lat="34.13867" lon="77.58679"><ele>3356</ele></trkpt>
<trkpt lat="34.13581" lon="77.58768"><ele>3352</ele></trkpt>
<trkpt lat="34.13386" lon="77.58794"><ele>3321</ele></trkpt>
<trkpt lat="34.13232" lon="77.58791"><ele>3320</ele></trkpt>
<trkpt lat="34.13075" lon="77.58785"><ele>3307</ele></trkpt>
<trkpt lat="34.12718" lon="77.58778"><ele>3281</ele></trkpt>
<trkpt lat="34.12553" lon="77.58774"><ele>3277</ele></trkpt>
<trkpt lat="34.12424" lon="77.58788"><ele>3266</ele></trkpt>
<trkpt lat="34.12233" lon="77.58818"><ele>3256</ele></trkpt>
<trkpt lat="34.11896" lon="77.58874"><ele>3247</ele></trkpt>
<trkpt lat="34.11686" lon="77.58906"><ele>3253</ele></trkpt>
<trkpt lat="34.11548" lon="77.58946"><ele>3253</ele></trkpt>
<trkpt lat="34.11407" lon="77.58984"><ele>3246</ele></trkpt>
<trkpt lat="34.11045" lon="77.58999"><ele>3239</ele></trkpt>
<trkpt lat="34.10898" lon="77.59002"><ele>3236</ele></trkpt>
<trkpt lat="34.10749" lon="77.58998"><ele>3229</ele></trkpt>
<trkpt lat="34.10572" lon="77.59059"><ele>3224</ele></trkpt>
<trkpt lat="34.10320" lon="77.59313"><ele>3225</ele></trkpt>
<trkpt lat="34.10173" lon="77.59460"><ele>3224</ele></trkpt>
<trkpt lat="34.10053" lon="77.59570"><ele>3225</ele></trkpt>
<trkpt lat="34.09952" lon="77.59662"><ele>3224</ele></trkpt>
<trkpt lat="34.09786" lon="77.59464"><ele>3213</ele></trkpt>
<trkpt lat="34.09643" lon="77.59550"><ele>3212</ele></trkpt>
<trkpt lat="34.09519" lon="77.59612"><ele>3215</ele></trkpt>
<trkpt lat="34.09349" lon="77.59725"><ele>3215</ele></trkpt>
<trkpt lat="34.09113" lon="77.59813"><ele>3216</ele></trkpt>
<trkpt lat="34.08961" lon="77.59859"><ele>3216</ele></trkpt>
<trkpt lat="34.08797" lon="77.59911"><ele>3219</ele></trkpt>
<trkpt lat="34.08648" lon="77.59945"><ele>3224</ele></trkpt>
<trkpt lat="34.08369" lon="77.59998"><ele>3226</ele></trkpt>
<trkpt lat="34.08237" lon="77.60063"><ele>3223</ele></trkpt>
<trkpt lat="34.08118" lon="77.60109"><ele>3224</ele></trkpt>
<trkpt lat="34.08006" lon="77.60218"><ele>3221</ele></trkpt>
<trkpt lat="34.07696" lon="77.60248"><ele>3231</ele></trkpt>
<trkpt lat="34.07564" lon="77.60315"><ele>3227</ele></trkpt>
<trkpt lat="34.07425" lon="77.60396"><ele>3225</ele></trkpt>
<trkpt lat="34.07339" lon="77.60531"><ele>3231</ele></trkpt>
<trkpt lat="34.07136" lon="77.60793"><ele>3233</ele></trkpt>
<trkpt lat="34.07059" lon="77.60902"><ele>3231</ele></trkpt>
<trkpt lat="34.06994" lon="77.61040"><ele>3228</ele></trkpt>
<trkpt lat="34.06935" lon="77.61175"><ele>3231</ele></trkpt>
<trkpt lat="34.06804" lon="77.61486"><ele>3234</ele></trkpt>
<trkpt lat="34.06733" lon="77.61626"><ele>3232</ele></trkpt>
<trkpt lat="34.06635" lon="77.61778"><ele>3236</ele></trkpt>
<trkpt lat="34.06529" lon="77.61843"><ele>3234</ele></trkpt>
<trkpt lat="34.06355" lon="77.62053"><ele>3237</ele></trkpt>
<trkpt lat="34.06230" lon="77.62202"><ele>3236</ele></trkpt>
<trkpt lat="34.06130" lon="77.62301"><ele>3241</ele></trkpt>
<trkpt lat="34.06075" lon="77.62404"><ele>3239</ele></trkpt>
<trkpt lat="34.05946" lon="77.62579"><ele>3241</ele></trkpt>
<trkpt lat="34.05853" lon="77.62691"><ele>3240</ele></trkpt>
<trkpt lat="34.05754" lon="77.62792"><ele>3242</ele></trkpt>
<trkpt lat="34.05637" lon="77.62878"><ele>3242</ele></trkpt>
<trkpt lat="34.05479" lon="77.63115"><ele>3244</ele></trkpt>
<trkpt lat="34.05350" lon="77.63228"><ele>3242</ele></trkpt>
<trkpt lat="34.05280" lon="77.63329"><ele>3245</ele></trkpt>
<trkpt lat="34.05216" lon="77.63431"><ele>3247</ele></trkpt>
<trkpt lat="34.04966" lon="77.63600"><ele>3244</ele></trkpt>
<trkpt lat="34.04891" lon="77.63670"><ele>3248</ele></trkpt>
<trkpt lat="34.04806" lon="77.63770"><ele>3247</ele></trkpt>
<trkpt lat="34.04690" lon="77.63901"><ele>3249</ele></trkpt>
<trkpt lat="34.04527" lon="77.64095"><ele>3252</ele></trkpt>
<trkpt lat="34.04413" lon="77.64225"><ele>3250</ele></trkpt>
<trkpt lat="34.04325" lon="77.64327"><ele>3252</ele></trkpt>
<trkpt lat="34.04209" lon="77.64463"><ele>3255</ele></trkpt>
<trkpt lat="34.03969" lon="77.64733"><ele>3256</ele></trkpt>
<trkpt lat="34.03918" lon="77.64836"><ele>3258</ele></trkpt>
<trkpt lat="34.03845" lon="77.64997"><ele>3255</ele></trkpt>
<trkpt lat="34.03739" lon="77.65135"><ele>3259</ele></trkpt>
<trkpt lat="34.03491" lon="77.65378"><ele>3258</ele></trkpt>
<trkpt lat="34.03353" lon="77.65524"><ele>3258</ele></trkpt>
<trkpt lat="34.03247" lon="77.65636"><ele>3258</ele></trkpt>
<trkpt lat="34.03149" lon="77.65756"><ele>3260</ele></trkpt>
<trkpt lat="34.02993" lon="77.66110"><ele>3260</ele></trkpt>
<trkpt lat="34.02907" lon="77.66278"><ele>3262</ele></trkpt>
<trkpt lat="34.02796" lon="77.66398"><ele>3266</ele></trkpt>
<trkpt lat="34.02652" lon="77.66566"><ele>3263</ele></trkpt>
<trkpt lat="34.02471" lon="77.66792"><ele>3263</ele></trkpt>
<trkpt lat="34.02378" lon="77.66909"><ele>3268</ele></trkpt>
<trkpt lat="34.02264" lon="77.67003"><ele>3268</ele></trkpt>
<trkpt lat="34.02132" lon="77.66968"><ele>3271</ele></trkpt>
<trkpt lat="34.01907" lon="77.66967"><ele>3279</ele></trkpt>
<trkpt lat="34.01799" lon="77.67081"><ele>3279</ele></trkpt>
<trkpt lat="34.01693" lon="77.67165"><ele>3281</ele></trkpt>
<trkpt lat="34.01534" lon="77.67241"><ele>3285</ele></trkpt>
<trkpt lat="34.01224" lon="77.67301"><ele>3289</ele></trkpt>
<trkpt lat="34.01063" lon="77.67325"><ele>3289</ele></trkpt>
<trkpt lat="34.00876" lon="77.67341"><ele>3291</ele></trkpt>
<trkpt lat="34.00769" lon="77.67355"><ele>3291</ele></trkpt>
<trkpt lat="34.00744" lon="77.67719"><ele>3280</ele></trkpt>
<trkpt lat="34.00760" lon="77.67922"><ele>3276</ele></trkpt>
<trkpt lat="34.00766" lon="77.68093"><ele>3278</ele></trkpt>
<trkpt lat="34.00716" lon="77.68261"><ele>3279</ele></trkpt>
<trkpt lat="34.00670" lon="77.68623"><ele>3279</ele></trkpt>
<trkpt lat="34.00672" lon="77.68790"><ele>3277</ele></trkpt>
<trkpt lat="34.00759" lon="77.68892"><ele>3277</ele></trkpt>
<trkpt lat="34.00857" lon="77.69006"><ele>3281</ele></trkpt>
<trkpt lat="34.01066" lon="77.69035"><ele>3288</ele></trkpt>
<trkpt lat="34.01195" lon="77.68938"><ele>3285</ele></trkpt>
<trkpt lat="34.01321" lon="77.68822"><ele>3288</ele></trkpt>
<trkpt lat="34.01463" lon="77.68721"><ele>3280</ele></trkpt>
<trkpt lat="34.01729" lon="77.68548"><ele>3278</ele></trkpt>
<trkpt lat="34.01871" lon="77.68494"><ele>3278</ele></trkpt>
<trkpt lat="34.02048" lon="77.68394"><ele>3277</ele></trkpt>
<trkpt lat="34.02186" lon="77.68292"><ele>3274</ele></trkpt>
<trkpt lat="34.02467" lon="77.68097"><ele>3268</ele></trkpt>
<trkpt lat="34.02632" lon="77.67990"><ele>3268</ele></trkpt>
<trkpt lat="34.02778" lon="77.67915"><ele>3269</ele></trkpt>
<trkpt lat="34.02929" lon="77.67839"><ele>3265</ele></trkpt>
<trkpt lat="34.03264" lon="77.67646"><ele>3263</ele></trkpt>
<trkpt lat="34.03396" lon="77.67558"><ele>3264</ele></trkpt>
<trkpt lat="34.03521" lon="77.67456"><ele>3261</ele></trkpt>
<trkpt lat="34.03653" lon="77.67399"><ele>3263</ele></trkpt>
<trkpt lat="34.03940" lon="77.67288"><ele>3261</ele></trkpt>
<trkpt lat="34.04112" lon="77.67230"><ele>3259</ele></trkpt>
<trkpt lat="34.04234" lon="77.67175"><ele>3258</ele></trkpt>
<trkpt lat="34.04365" lon="77.67087"><ele>3260</ele></trkpt>
<trkpt lat="34.04648" lon="77.66999"><ele>3257</ele></trkpt>
<trkpt lat="34.04784" lon="77.66962"><ele>3261</ele></trkpt>
<trkpt lat="34.04884" lon="77.66905"><ele>3261</ele></trkpt>
<trkpt lat="34.05033" lon="77.66868"><ele>3260</ele></trkpt>
<trkpt lat="34.05242" lon="77.66617"><ele>3261</ele></trkpt>
<trkpt lat="34.05347" lon="77.66491"><ele>3257</ele></trkpt>
<trkpt lat="34.05465" lon="77.66435"><ele>3258</ele></trkpt>
<trkpt lat="34.05603" lon="77.66465"><ele>3257</ele></trkpt>
<trkpt lat="34.05831" lon="77.66684"><ele>3267</ele></trkpt>
<trkpt lat="34.05966" lon="77.66720"><ele>3261</ele></trkpt>
<trkpt lat="34.06039" lon="77.66572"><ele>3261</ele></trkpt>
<trkpt lat="34.06090" lon="77.66375"><ele>3256</ele></trkpt>
<trkpt lat="34.06158" lon="77.66026"><ele>3258</ele></trkpt>
<trkpt lat="34.06233" lon="77.65800"><ele>3261</ele></trkpt>
<trkpt lat="34.06301" lon="77.65617"><ele>3257</ele></trkpt>
<trkpt lat="34.06385" lon="77.65477"><ele>3255</ele></trkpt>
<trkpt lat="34.06614" lon="77.65167"><ele>3256</ele></trkpt>
<trkpt lat="34.06724" lon="77.65030"><ele>3256</ele></trkpt>
<trkpt lat="34.06833" lon="77.64910"><ele>3256</ele></trkpt>
<trkpt lat="34.06956" lon="77.64738"><ele>3254</ele></trkpt>
<trkpt lat="34.07111" lon="77.64436"><ele>3252</ele></trkpt>
<trkpt lat="34.07183" lon="77.64289"><ele>3254</ele></trkpt>
<trkpt lat="34.07297" lon="77.64087"><ele>3253</ele></trkpt>
<trkpt lat="34.07367" lon="77.63927"><ele>3253</ele></trkpt>
<trkpt lat="34.07291" lon="77.63578"><ele>3240</ele></trkpt>
<trkpt lat="34.07189" lon="77.63450"><ele>3245</ele></trkpt>
<trkpt lat="34.07085" lon="77.63322"><ele>3247</ele></trkpt>
<trkpt lat="34.06974" lon="77.63251"><ele>3237</ele></trkpt>
<trkpt lat="34.07152" lon="77.63061"><ele>3235</ele></trkpt>
<trkpt lat="34.07264" lon="77.62958"><ele>3234</ele></trkpt>
<trkpt lat="34.07398" lon="77.62861"><ele>3233</ele></trkpt>
<trkpt lat="34.07457" lon="77.62775"><ele>3234</ele></trkpt>
<trkpt lat="34.07661" lon="77.62584"><ele>3232</ele></trkpt>
<trkpt lat="34.07755" lon="77.62497"><ele>3228</ele></trkpt>
<trkpt lat="34.07835" lon="77.62370"><ele>3227</ele></trkpt>
<trkpt lat="34.07976" lon="77.62290"><ele>3231</ele></trkpt>
<trkpt lat="34.08173" lon="77.62096"><ele>3226</ele></trkpt>
<trkpt lat="34.08239" lon="77.62009"><ele>3226</ele></trkpt>
<trkpt lat="34.08383" lon="77.61926"><ele>3226</ele></trkpt>
<trkpt lat="34.08476" lon="77.61865"><ele>3220</ele></trkpt>
<trkpt lat="34.08740" lon="77.61587"><ele>3225</ele></trkpt>
<trkpt lat="34.08794" lon="77.61497"><ele>3227</ele></trkpt>
<trkpt lat="34.08805" lon="77.61319"><ele>3230</ele></trkpt>
<trkpt lat="34.08776" lon="77.61156"><ele>3235</ele></trkpt>
<trkpt lat="34.08750" lon="77.60850"><ele>3232</ele></trkpt>
<trkpt lat="34.08835" lon="77.60776"><ele>3223</ele></trkpt>
<trkpt lat="34.09017" lon="77.60708"><ele>3220</ele></trkpt>
<trkpt lat="34.09181" lon="77.60643"><ele>3218</ele></trkpt>
<trkpt lat="34.09436" lon="77.60435"><ele>3217</ele></trkpt>
<trkpt lat="34.09560" lon="77.60284"><ele>3222</ele></trkpt>
<trkpt lat="34.09644" lon="77.60104"><ele>3221</ele></trkpt>
<trkpt lat="34.09727" lon="77.59925"><ele>3224</ele></trkpt>
<trkpt lat="34.09971" lon="77.59636"><ele>3222</ele></trkpt>
<trkpt lat="34.10098" lon="77.59520"><ele>3225</ele></trkpt>
<trkpt lat="34.10224" lon="77.59403"><ele>3226</ele></trkpt>
<trkpt lat="34.10370" lon="77.59254"><ele>3224</ele></trkpt>
<trkpt lat="34.10634" lon="77.59023"><ele>3225</ele></trkpt>
<trkpt lat="34.10828" lon="77.58990"><ele>3233</ele></trkpt>
<trkpt lat="34.10983" lon="77.58997"><ele>3238</ele></trkpt>
<trkpt lat="34.11148" lon="77.58989"><ele>3242</ele></trkpt>
<trkpt lat="34.11521" lon="77.58948"><ele>3253</ele></trkpt>
<trkpt lat="34.11680" lon="77.58903"><ele>3252</ele></trkpt>
<trkpt lat="34.11842" lon="77.58878"><ele>3248</ele></trkpt>
<trkpt lat="34.12055" lon="77.58845"><ele>3252</ele></trkpt>
<trkpt lat="34.12357" lon="77.58793"><ele>3261</ele></trkpt>
<trkpt lat="34.12534" lon="77.58767"><ele>3275</ele></trkpt>
<trkpt lat="34.12692" lon="77.58771"><ele>3281</ele></trkpt>
<trkpt lat="34.12852" lon="77.58775"><ele>3285</ele></trkpt>
<trkpt lat="34.13224" lon="77.58787"><ele>3320</ele></trkpt>
<trkpt lat="34.13367" lon="77.58789"><ele>3322</ele></trkpt>
<trkpt lat="34.13509" lon="77.58776"><ele>3341</ele></trkpt>
<trkpt lat="34.13700" lon="77.58732"><ele>3354</ele></trkpt>
<trkpt lat="34.13972" lon="77.58621"><ele>3359</ele></trkpt>
<trkpt lat="34.14148" lon="77.58505"><ele>3377</ele></trkpt>
<trkpt lat="34.14273" lon="77.58394"><ele>3372</ele></trkpt>
<trkpt lat="34.14400" lon="77.58283"><ele>3374</ele></trkpt>
<trkpt lat="34.14695" lon="77.58028"><ele>3396</ele></trkpt>
<trkpt lat="34.14831" lon="77.57909"><ele>3393</ele></trkpt>
</trkseg></trk></gpx>
